start=new Date('2021-10-01T00:00:00.000Z').valueOf();
sats=[{"MEAN_MOTION_DOT":"-0.00000231","INCLINATION":"53.0554","TLE_LINE1":"1 44952U 20001AQ  21273.75232768 -.00000231  00000-0  33952-5 0  9996","CENTER_NAME":"EARTH","DECAY_DATE":null,"COUNTRY_CODE":"US","ECCENTRICITY":"0.00016300","BSTAR":"0.00000339520000","PERIAPSIS":"546.111","OBJECT_ID":"2020-001AQ","NORAD_CAT_ID":"44952","MEAN_MOTION":"15.06391477","OBJECT_NAME":"STARLINK-1117","TLE_LINE2":"2 44952  53.0554  43.2922 0001630 108.8320 251.2846 15.06391477 95816","SITE":"AFETR","OBJECT_TYPE":"PAYLOAD","ELEMENT_SET_NO":"999","MEAN_MOTION_DDOT":"0.0000000000000","REV_AT_EPOCH":"9581","FILE":"3137128","LAUNCH_DATE":"2020-01-07","EPHEMERIS_TYPE":"0","MEAN_ELEMENT_THEORY":"SGP4","REF_FRAME":"TEME","MEAN_ANOMALY":"251.2846","RA_OF_ASC_NODE":"43.2922","TIME_SYSTEM":"UTC","ARG_OF_PERICENTER":"108.8320","SEMIMAJOR_AXIS":"6925.375","RCS_SIZE":"LARGE","PERIOD":"95.593","EPOCH":"2021-09-30T18:03:21.111552","APOAPSIS":"548.369","GP_ID":"185866680","CLASSIFICATION_TYPE":"U"},{"REV_AT_EPOCH":"9708","FILE":"3137128","LAUNCH_DATE":"2020-01-07","EPHEMERIS_TYPE":"0","MEAN_ELEMENT_THEORY":"SGP4","REF_FRAME":"TEME","MEAN_ANOMALY":"257.7300","MEAN_MOTION_DOT":"0.00001780","INCLINATION":"53.0560","TLE_LINE1":"1 44953U 20001AR  21273.63711034  .00001780  00000-0  13838-3 0  9990","CENTER_NAME":"EARTH","DECAY_DATE":null,"COUNTRY_CODE":"US","ECCENTRICITY":"0.00013670","BSTAR":"0.00013838000000","PERIAPSIS":"546.267","OBJECT_ID":"2020-001AR","NORAD_CAT_ID":"44953","MEAN_MOTION":"15.06400012","OBJECT_NAME":"STARLINK-1124","SITE":"AFETR","TLE_LINE2":"2 44953  53.0560  43.8559 0001367 102.3842 257.7300 15.06400012 97084","ELEMENT_SET_NO":"999","OBJECT_TYPE":"PAYLOAD","MEAN_MOTION_DDOT":"0.0000000000000","CLASSIFICATION_TYPE":"U","GP_ID":"185867185","RA_OF_ASC_NODE":"43.8559","TIME_SYSTEM":"UTC","SEMIMAJOR_AXIS":"6925.349","ARG_OF_PERICENTER":"102.3842","RCS_SIZE":"LARGE","PERIOD":"95.592","EPOCH":"2021-09-30T15:17:26.333376","APOAPSIS":"548.160"},{"REV_AT_EPOCH":"9603","LAUNCH_DATE":"2020-01-07","FILE":"3137099","EPHEMERIS_TYPE":"0","MEAN_ELEMENT_THEORY":"SGP4","MEAN_ANOMALY":"262.2479","REF_FRAME":"TEME","INCLINATION":"53.0571","MEAN_MOTION_DOT":"0.00001081","TLE_LINE1":"1 44954U 20001AS  21273.71730174  .00001081  00000-0  91419-4 0  9992","DECAY_DATE":null,"CENTER_NAME":"EARTH","COUNTRY_CODE":"US","ECCENTRICITY":"0.00011730","BSTAR":"0.00009141900000","PERIAPSIS":"546.385","OBJECT_ID":"2020-001AS","NORAD_CAT_ID":"44954","MEAN_MOTION":"15.06405322","SITE":"AFETR","TLE_LINE2":"2 44954  53.0571  23.4559 0001173  97.8643 262.2479 15.06405322 96034","OBJECT_NAME":"STARLINK-1066","MEAN_MOTION_DDOT":"0.0000000000000","ELEMENT_SET_NO":"999","OBJECT_TYPE":"PAYLOAD","CLASSIFICATION_TYPE":"U","GP_ID":"185866384","RA_OF_ASC_NODE":"23.4559","TIME_SYSTEM":"UTC","SEMIMAJOR_AXIS":"6925.332","ARG_OF_PERICENTER":"97.8643","RCS_SIZE":"LARGE","PERIOD":"95.592","APOAPSIS":"548.010","EPOCH":"2021-09-30T17:12:54.870336"},{"CLASSIFICATION_TYPE":"U","GP_ID":"185858188","RA_OF_ASC_NODE":"24.3173","TIME_SYSTEM":"UTC","ARG_OF_PERICENTER":"89.5121","SEMIMAJOR_AXIS":"6925.352","RCS_SIZE":"LARGE","PERIOD":"95.592","APOAPSIS":"548.143","EPOCH":"2021-09-30T12:36:54.981504","REV_AT_EPOCH":"9600","LAUNCH_DATE":"2020-01-07","FILE":"3136969","EPHEMERIS_TYPE":"0","MEAN_ELEMENT_THEORY":"SGP4","MEAN_ANOMALY":"270.6021","REF_FRAME":"TEME","MEAN_MOTION_DOT":"0.00000551","INCLINATION":"53.0566","DECAY_DATE":null,"TLE_LINE1":"1 44955U 20001AT  21273.52563636  .00000551  00000-0  55870-4 0  9991","CENTER_NAME":"EARTH","COUNTRY_CODE":"US","ECCENTRICITY":"0.00013380","BSTAR":"0.00005587000000","PERIAPSIS":"546.290","OBJECT_ID":"2020-001AT","NORAD_CAT_ID":"44955","MEAN_MOTION":"15.06398950","TLE_LINE2":"2 44955  53.0566  24.3173 0001338  89.5121 270.6021 15.06398950 96004","SITE":"AFETR","OBJECT_NAME":"STARLINK-1069","MEAN_MOTION_DDOT":"0.0000000000000","ELEMENT_SET_NO":"999","OBJECT_TYPE":"PAYLOAD"},{"PERIOD":"95.592","APOAPSIS":"547.990","EPOCH":"2021-09-30T12:31:36.179328","ARG_OF_PERICENTER":"103.6356","SEMIMAJOR_AXIS":"6925.346","RCS_SIZE":"LARGE","TIME_SYSTEM":"UTC","RA_OF_ASC_NODE":"24.3333","CLASSIFICATION_TYPE":"U","GP_ID":"185858438","OBJECT_NAME":"STARLINK-1070","SITE":"AFETR","TLE_LINE2":"2 44956  53.0559  24.3333 0001125 103.6356 256.4759 15.06400992 96063","ELEMENT_SET_NO":"999","OBJECT_TYPE":"PAYLOAD","MEAN_MOTION_DDOT":"0.0000000000000","PERIAPSIS":"546.431","OBJECT_ID":"2020-001AU","NORAD_CAT_ID":"44956","MEAN_MOTION":"15.06400992","ECCENTRICITY":"0.00011250","COUNTRY_CODE":"US","BSTAR":"0.00008761400000","INCLINATION":"53.0559","MEAN_MOTION_DOT":"0.00001024","CENTER_NAME":"EARTH","TLE_LINE1":"1 44956U 20001AU  21273.52194652  .00001024  00000-0  87614-4 0  9997","DECAY_DATE":null,"REF_FRAME":"TEME","MEAN_ANOMALY":"256.4759","EPHEMERIS_TYPE":"0","MEAN_ELEMENT_THEORY":"SGP4","REV_AT_EPOCH":"9606","FILE":"3136969","LAUNCH_DATE":"2020-01-07"},{"FILE":"3137103","LAUNCH_DATE":"2020-01-07","REV_AT_EPOCH":"9608","MEAN_ELEMENT_THEORY":"SGP4","EPHEMERIS_TYPE":"0","REF_FRAME":"TEME","MEAN_ANOMALY":"268.4685","TLE_LINE1":"1 44957U 20001AV  21273.68044830 -.00000118  00000-0  10981-4 0  9994","CENTER_NAME":"EARTH","DECAY_DATE":null,"MEAN_MOTION_DOT":"-0.00000118","INCLINATION":"53.0563","BSTAR":"0.00001098100000","ECCENTRICITY":"0.00013230","COUNTRY_CODE":"US","MEAN_MOTION":"15.06402689","OBJECT_ID":"2020-001AV","NORAD_CAT_ID":"44957","PERIAPSIS":"546.289","ELEMENT_SET_NO":"999","OBJECT_TYPE":"PAYLOAD","MEAN_MOTION_DDOT":"0.0000000000000","OBJECT_NAME":"STARLINK-1074","TLE_LINE2":"2 44957  53.0563  23.6211 0001323  91.6455 268.4685 15.06402689 96080","SITE":"AFETR","CLASSIFICATION_TYPE":"U","GP_ID":"185866447","RA_OF_ASC_NODE":"23.6211","TIME_SYSTEM":"UTC","RCS_SIZE":"LARGE","ARG_OF_PERICENTER":"91.6455","SEMIMAJOR_AXIS":"6925.340","EPOCH":"2021-09-30T16:19:50.733120","APOAPSIS":"548.122","PERIOD":"95.592"},{"CLASSIFICATION_TYPE":"U","GP_ID":"185859440","RCS_SIZE":"LARGE","ARG_OF_PERICENTER":"101.3935","SEMIMAJOR_AXIS":"6925.336","APOAPSIS":"548.191","EPOCH":"2021-09-30T11:54:26.939232","PERIOD":"95.592","RA_OF_ASC_NODE":"24.4469","TIME_SYSTEM":"UTC","MEAN_ELEMENT_THEORY":"SGP4","EPHEMERIS_TYPE":"0","REF_FRAME":"TEME","MEAN_ANOMALY":"258.7215","FILE":"3136969","LAUNCH_DATE":"2020-01-07","REV_AT_EPOCH":"9605","MEAN_MOTION":"15.06404027","NORAD_CAT_ID":"44959","OBJECT_ID":"2020-001AX","PERIAPSIS":"546.212","ELEMENT_SET_NO":"999","OBJECT_TYPE":"PAYLOAD","MEAN_MOTION_DDOT":"0.0000000000000","OBJECT_NAME":"STARLINK-1076","SITE":"AFETR","TLE_LINE2":"2 44959  53.0568  24.4469 0001429 101.3935 258.7215 15.06404027 96056","DECAY_DATE":null,"TLE_LINE1":"1 44959U 20001AX  21273.49614513  .00001071  00000-0  90773-4 0  9991","CENTER_NAME":"EARTH","INCLINATION":"53.0568","MEAN_MOTION_DOT":"0.00001071","BSTAR":"0.00009077300000","COUNTRY_CODE":"US","ECCENTRICITY":"0.00014290"},{"BSTAR":"0.00009412800000","ECCENTRICITY":"0.00010890","COUNTRY_CODE":"US","TLE_LINE1":"1 44961U 20001AZ  21273.70255989  .00001121  00000-0  94128-4 0  9990","CENTER_NAME":"EARTH","DECAY_DATE":null,"INCLINATION":"53.0563","MEAN_MOTION_DOT":"0.00001121","ELEMENT_SET_NO":"999","OBJECT_TYPE":"PAYLOAD","MEAN_MOTION_DDOT":"0.0000000000000","OBJECT_NAME":"STARLINK-1080","TLE_LINE2":"2 44961  53.0563  23.5158 0001089  85.0404 275.0709 15.06410939 96093","SITE":"AFETR","OBJECT_ID":"2020-001AZ","MEAN_MOTION":"15.06410939","NORAD_CAT_ID":"44961","PERIAPSIS":"546.426","FILE":"3137103","LAUNCH_DATE":"2020-01-07","REV_AT_EPOCH":"9609","REF_FRAME":"TEME","MEAN_ANOMALY":"275.0709","MEAN_ELEMENT_THEORY":"SGP4","EPHEMERIS_TYPE":"0","TIME_SYSTEM":"UTC","RA_OF_ASC_NODE":"23.5158","EPOCH":"2021-09-30T16:51:41.174496","APOAPSIS":"547.934","PERIOD":"95.591","RCS_SIZE":"LARGE","SEMIMAJOR_AXIS":"6925.315","ARG_OF_PERICENTER":"85.0404","GP_ID":"185865945","CLASSIFICATION_TYPE":"U"},{"MEAN_MOTION_DOT":"0.13570187","INCLINATION":"53.0419","CENTER_NAME":"EARTH","TLE_LINE1":"1 44962U 20001BA  21273.13018918  .13570187  12388-4  15747-2 0  9998","DECAY_DATE":null,"COUNTRY_CODE":"US","ECCENTRICITY":"0.00089860","BSTAR":"0.00157470000000","PERIAPSIS":"170.985","MEAN_MOTION":"16.35847011","NORAD_CAT_ID":"44962","OBJECT_ID":"2020-001BA","OBJECT_NAME":"STARLINK-1081","SITE":"AFETR","TLE_LINE2":"2 44962  53.0419 325.3064 0008986  19.5069 345.8793 16.35847011 96845","OBJECT_TYPE":"PAYLOAD","ELEMENT_SET_NO":"999","MEAN_MOTION_DDOT":"0.0000123880000","REV_AT_EPOCH":"9684","FILE":"3135584","LAUNCH_DATE":"2020-01-07","EPHEMERIS_TYPE":"0","MEAN_ELEMENT_THEORY":"SGP4","REF_FRAME":"TEME","MEAN_ANOMALY":"345.8793","RA_OF_ASC_NODE":"325.3064","TIME_SYSTEM":"UTC","ARG_OF_PERICENTER":"19.5069","SEMIMAJOR_AXIS":"6555.010","RCS_SIZE":"LARGE","PERIOD":"88.028","EPOCH":"2021-09-30T03:07:28.345152","APOAPSIS":"182.766","CLASSIFICATION_TYPE":"U","GP_ID":"185807634"},{"CLASSIFICATION_TYPE":"U","GP_ID":"185866462","APOAPSIS":"543.347","EPOCH":"2021-09-30T16:55:12.676512","PERIOD":"95.492","RCS_SIZE":"LARGE","ARG_OF_PERICENTER":"72.8121","SEMIMAJOR_AXIS":"6920.509","TIME_SYSTEM":"UTC","RA_OF_ASC_NODE":"20.3262","REF_FRAME":"TEME","MEAN_ANOMALY":"287.3022","MEAN_ELEMENT_THEORY":"SGP4","EPHEMERIS_TYPE":"0","FILE":"3137104","LAUNCH_DATE":"2020-01-07","REV_AT_EPOCH":"9684","OBJECT_TYPE":"PAYLOAD","ELEMENT_SET_NO":"999","MEAN_MOTION_DDOT":"0.0000000000000","OBJECT_NAME":"STARLINK-1085","TLE_LINE2":"2 44963  53.0011  20.3262 0001406  72.8121 287.3022 15.07980323 96844","SITE":"AFETR","MEAN_MOTION":"15.07980323","OBJECT_ID":"2020-001BB","NORAD_CAT_ID":"44963","PERIAPSIS":"541.401","BSTAR":"0.00047169000000","ECCENTRICITY":"0.00014060","COUNTRY_CODE":"US","TLE_LINE1":"1 44963U 20001BB  21273.70500783  .00007055  00000-0  47169-3 0  9991","DECAY_DATE":null,"CENTER_NAME":"EARTH","INCLINATION":"53.0011","MEAN_MOTION_DOT":"0.00007055"}];
